ONEWEB-0205             
1 48226U 21031S   24305.57127688  .00000145  00000+0  35699-3 0  9991
2 48226  87.9027  47.7361 0001395  98.3423 261.7864 13.14502078170285
ONEWEB-0206             
1 48227U 21031T   24305.77267483 -.00000143  00000+0 -42135-3 0  9995
2 48227  87.9025  47.6820 0001420 102.2503 257.8786 13.14501915170273
ONEWEB-0182             
1 48228U 21031U   24305.53956580 -.00000100  00000+0 -30495-3 0  9992
2 48228  87.9029  47.7614 0001687 106.4684 253.6631 13.14502191170440
ONEWEB-0186             
1 48229U 21031V   24305.77901828 -.00000141  00000+0 -41499-3 0  9995
2 48229  87.9028  47.6770 0001629  97.9925 262.1389 13.14502792170431
ONEWEB-0181             
1 48230U 21031W   24305.75682215  .00000126  00000+0  30409-3 0  9991
2 48230  87.9030  47.7516 0001604  95.4068 264.7245 13.14503247170287
ONEWEB-0188             
1 48231U 21031X   24305.79487349 -.00000078  00000+0 -24392-3 0  9999
2 48231  87.9027  47.7384 0001557  99.3864 260.7442 13.14501406170180
ONEWEB-0220             
1 48232U 21031Y   24305.75840672  .00000097  00000+0  22837-3 0  9999
2 48232  87.9021  47.7018 0001355 103.0673 257.0608 13.14503002170442
ONEWEB-0165             
1 48233U 21031Z   24305.78694676 -.00000070  00000+0 -22433-3 0  9999
2 48233  87.9028  47.7225 0001486  96.9577 263.1722 13.14502314170404
